SAUDISAT 1C (SO-50)     
1 27607U 02058C   26115.82574772  .00001145  00000+0  15231-3 0  9999
2 27607  64.5516 290.9753 0075587 271.9918  87.2533 14.82928015256691
SAUDISAT 2              
1 28371U 04025F   26115.75589839  .00000251  00000+0  67100-4 0  9996
2 28371  98.5511 114.3855 0025957  97.4981 262.9167 14.56650112158115
SAUDISAT 3              
1 31118U 07012B   26115.35247214  .00000301  00000+0  56746-4 0  9992
2 31118  98.1418  65.7325 0015519  39.7088 320.5252 14.71391578 19972
PISAT                   
1 41784U 16059B   26115.55719233  .00000919  00000+0  16420-3 0  9999
2 41784  97.8190 118.2753 0029464  16.7333 343.4839 14.68884162512016
FLYING LAPTOP           
1 42831U 17042G   26115.85306230  .00002870  00000+0  22978-3 0  9991
2 42831  97.4455 273.4871 0018205 304.0734  55.8762 15.00808344478604
SALSAT                  
1 46495U 20068K   26115.73859803  .00008478  00000+0  30336-3 0  9996
2 46495  97.8866 115.6436 0011520 121.8273 238.4089 15.29000493307347
